      2.10          N: GNSS NAV DATA                        RINEX VERSION / TYPE
fic2rin                                 02/02/2020 00:22:19 PGM / RUN BY / DATE
                                                            END OF HEADER
 9 20  2  1  4  0  0.0-1.454842276871e-04-8.640199666843e-12 0.000000000000e+00
    1.090000000000e+02-1.337500000000e+01 4.620549607295e-09-1.947748913777e+00
   -7.487833499908e-07 1.778916106559e-03 9.596347808838e-06 5.153799686432e+03
    5.328000000000e+05 2.793967723846e-08 9.902860095244e-01 6.705522537231e-08
    9.525735116532e-01 1.907500000000e+02 1.767094377317e+00-8.028548706994e-09
   -1.217907873609e-10 1.000000000000e+00 2.090000000000e+03 0.000000000000e+00
    2.400000000000e+00 0.000000000000e+00 1.396983861923e-09 1.090000000000e+02
    5.256000000000e+05 4.000000000000e+00
10 20  2  1  4  0  0.0-2.296045422554e-04-1.330136001343e-11 0.000000000000e+00
    5.600000000000e+01-3.315625000000e+01 4.661622746727e-09-3.188063931659e-01
   -1.866370439529e-06 5.362246651202e-03 6.088986992836e-06 5.153660617828e+03
    5.328000000000e+05 4.842877388000e-08-4.385079387586e-02 7.823109626770e-08
    9.650872075731e-01 2.632187500000e+02-2.685574460247e+00-8.241057558840e-09
   -1.346484657919e-10 1.000000000000e+00 2.090000000000e+03 0.000000000000e+00
    2.400000000000e+00 0.000000000000e+00 1.862645149231e-09 5.600000000000e+01
    5.256000000000e+05 4.000000000000e+00
15 20  2  1  4  0  0.0-2.546636387706e-04 2.614797267597e-12 0.000000000000e+00
    1.010000000000e+02-2.709375000000e+01 5.117713173296e-09 3.027110259887e+00
   -1.445412635803e-06 1.214519864880e-02 9.523704648018e-06 5.153631803513e+03
    5.328000000000e+05 6.146728992462e-08 9.038133709747e-01-1.359730958939e-07
    9.281562590566e-01 1.770625000000e+02 8.627963825439e-01-8.124266979758e-09
   -1.592923494515e-10 1.000000000000e+00 2.090000000000e+03 0.000000000000e+00
    2.400000000000e+00 0.000000000000e+00-1.117587089539e-08 1.010000000000e+02
    5.256000000000e+05 4.000000000000e+00
12 20  2  1  4  0  0.0 1.561604440212e-04-4.092726157978e-12 0.000000000000e+00
    5.100000000000e+01 1.015625000000e+01 4.349466887040e-09 3.847406025390e-01
    3.334134817123e-07 7.900638272986e-03 5.682930350304e-06 5.153752626419e+03
    5.328000000000e+05-1.117587089539e-07-3.113648429852e+00 7.450580596924e-08
    9.800369327349e-01 2.822812500000e+02 1.102546346235e+00-8.192126949256e-09
   -1.403629895391e-10 1.000000000000e+00 2.090000000000e+03 0.000000000000e+00
    2.400000000000e+00 0.000000000000e+00-1.257285475731e-08 5.100000000000e+01
    5.256000000000e+05 4.000000000000e+00
32 20  2  1  4  0  0.0 2.005039714277e-04 1.023181539495e-11 0.000000000000e+00
    1.300000000000e+01-2.462500000000e+01 4.466614623856e-09-1.601900106872e+00
   -1.259148120880e-06 3.503933432512e-03 9.747222065926e-06 5.153676973343e+03
    5.328000000000e+05 4.842877388000e-08 9.981534074045e-01-1.918524503708e-07
    9.567356057525e-01 1.921250000000e+02-2.538814499517e+00-7.898186134012e-09
   -1.571494030463e-10 1.000000000000e+00 2.090000000000e+03 0.000000000000e+00
    2.400000000000e+00 0.000000000000e+00 4.656612873077e-10 1.300000000000e+01
    5.256000000000e+05 4.000000000000e+00
22 20  2  1  4  0  0.0-7.835994474590e-04-9.094947017729e-13 0.000000000000e+00
    6.300000000000e+01-3.478125000000e+01 5.379509792461e-09 2.971921675347e+00
   -1.829117536545e-06 7.045810576528e-03 5.505979061127e-06 5.153584882736e+03
    5.328000000000e+05 1.434236764908e-07-1.229175632556e-01 9.313225746155e-08
    9.299272267216e-01 2.537187500000e+02-1.232807853338e+00-8.464995458181e-09
   -6.214544575012e-11 1.000000000000e+00 2.090000000000e+03 0.000000000000e+00
    2.400000000000e+00 0.000000000000e+00-1.816079020500e-08 6.300000000000e+01
    5.256000000000e+05 4.000000000000e+00
16 20  2  1  4  0  0.0-1.196488738060e-04-4.092726157978e-12 0.000000000000e+00
    9.800000000000e+01 5.562500000000e+00 4.223747364603e-09-1.455203083804e+00
    1.974403858185e-07 1.134926127270e-02 5.075708031654e-06 5.153705102921e+03
    5.328000000000e+05 1.825392246246e-07-3.094778784976e+00-1.080334186554e-07
    9.803134549731e-01 2.849062500000e+02 5.947359521110e-01-7.959260106560e-09
    1.678641350722e-11 1.000000000000e+00 2.090000000000e+03 0.000000000000e+00
    2.400000000000e+00 0.000000000000e+00-1.071020960808e-08 9.800000000000e+01
    5.256000000000e+05 4.000000000000e+00
31 20  2  1  4  0  0.0-2.027489244938e-05-2.501110429876e-12 0.000000000000e+00
    8.500000000000e+01 4.637500000000e+01 4.593048461762e-09 6.243357236661e-01
    2.585351467133e-06 9.647969854996e-03 7.737427949905e-06 5.153771627426e+03
    5.328000000000e+05 1.471489667892e-07 2.080402033004e+00 1.341104507446e-07
    9.579952352726e-01 2.269687500000e+02 1.127818626173e-01-8.147125074747e-09
    1.542921411727e-10 1.000000000000e+00 2.090000000000e+03 0.000000000000e+00
    2.400000000000e+00 0.000000000000e+00-1.350417733192e-08 8.500000000000e+01
    5.256000000000e+05 4.000000000000e+00
27 20  2  1  4  0  0.0-1.980103552341e-04-1.114131009672e-11 0.000000000000e+00
    5.800000000000e+01-2.268750000000e+01 4.123743199028e-09-2.367616138247e+00
   -1.352280378342e-06 7.765963673592e-03 8.255243301392e-06 5.153659524918e+03
    5.328000000000e+05 2.235174179077e-08-2.137743503380e+00-1.620501279831e-07
    9.784186629960e-01 2.303750000000e+02 4.993816687253e-01-7.826397429439e-09
    1.428630936784e-11 1.000000000000e+00 2.090000000000e+03 0.000000000000e+00
    2.400000000000e+00 0.000000000000e+00 1.396983861923e-09 5.800000000000e+01
    5.256000000000e+05 4.000000000000e+00
24 20  2  1  4  0  0.0-8.387491106987e-06-5.684341886081e-13 0.000000000000e+00
    5.600000000000e+01 6.296875000000e+01 5.075211402926e-09 1.949766854199e+00
    3.201887011528e-06 9.489547228441e-03 8.534640073776e-06 5.153665529251e+03
    5.328000000000e+05-1.844018697739e-07 1.995113631028e+00-7.450580596924e-09
    9.367352700297e-01 2.010312500000e+02 6.551659248963e-01-8.378920444240e-09
    1.567922453121e-10 1.000000000000e+00 2.090000000000e+03 0.000000000000e+00
    3.400000000000e+00 0.000000000000e+00 2.793967723846e-09 5.600000000000e+01
    5.256000000000e+05 4.000000000000e+00
30 20  2  1  4  0  0.0-1.425850205123e-04-8.981260180008e-12 0.000000000000e+00
    5.200000000000e+01 5.721875000000e+01 5.034852578962e-09 1.005463171634e+00
    3.036111593246e-06 4.226863733493e-03 7.240101695061e-06 5.153695346832e+03
    5.328000000000e+05-3.911554813385e-08 2.089756585127e+00 1.490116119385e-07
    9.388882056052e-01 2.284375000000e+02-2.934767870279e+00-8.341418882150e-09
    1.153619481453e-10 1.000000000000e+00 2.090000000000e+03 0.000000000000e+00
    2.400000000000e+00 0.000000000000e+00 3.725290298462e-09 5.200000000000e+01
    5.256000000000e+05 4.000000000000e+00
19 20  2  1  4  0  0.0-2.047559246421e-04 5.115907697473e-12 0.000000000000e+00
    6.700000000000e+01-1.184375000000e+01 4.077312693582e-09 2.461368884751e-01
   -5.383044481277e-07 9.155919891782e-03 8.847564458847e-06 5.153672679901e+03
    5.328000000000e+05-9.313225746155e-08-2.034248118919e+00-1.862645149231e-09
    9.821967864500e-01 2.230625000000e+02 1.554956124861e+00-8.014619555360e-09
   -7.750322832055e-11 1.000000000000e+00 2.090000000000e+03 0.000000000000e+00
    2.400000000000e+00 0.000000000000e+00-1.536682248116e-08 6.700000000000e+01
    5.256000000000e+05 4.000000000000e+00
26 20  2  1  4  0  0.0 1.391614787281e-04 7.844391802792e-12 0.000000000000e+00
    3.600000000000e+01 1.415625000000e+01 5.005208487024e-09-5.829251224969e-01
    7.636845111847e-07 4.602407338098e-03 4.971399903297e-06 5.153737169266e+03
    5.328000000000e+05 8.568167686462e-08 3.068990206138e+00 2.793967723846e-08
    9.484913104359e-01 2.735625000000e+02 1.852032622535e-01-8.459995249903e-09
   -5.178787145843e-11 1.000000000000e+00 2.090000000000e+03 0.000000000000e+00
    2.400000000000e+00 0.000000000000e+00 7.450580596924e-09 3.600000000000e+01
    5.256000000000e+05 4.000000000000e+00
25 20  2  1  4  0  0.0-1.459941267967e-05 1.136868377216e-12 0.000000000000e+00
    7.500000000000e+01 1.450000000000e+01 4.681980737576e-09 6.190544562744e-02
    7.208436727524e-07 9.013878414407e-03 5.373731255531e-06 5.153595689774e+03
    5.328000000000e+05-2.421438694000e-08 3.102112672724e+00 1.396983861923e-07
    9.673634964011e-01 2.834687500000e+02 8.937411068531e-01-8.381420548380e-09
   -8.464638300447e-11 1.000000000000e+00 2.090000000000e+03 0.000000000000e+00
    2.400000000000e+00 0.000000000000e+00 5.587935447693e-09 7.500000000000e+01
    5.256000000000e+05 4.000000000000e+00
23 20  2  1  4  0  0.0-1.393528655171e-04 2.501110429876e-12 0.000000000000e+00
    9.300000000000e+01-1.937500000000e+01 4.741983236921e-09 2.441348325649e+00
   -1.203268766403e-06 1.339329220355e-02 9.531155228615e-06 5.153679512024e+03
    5.328000000000e+05 7.450580596924e-09 9.827933234810e-01-2.179294824600e-07
    9.433954445041e-01 1.852500000000e+02-2.202965951906e+00-7.940330746647e-09
   -8.821796034643e-11 1.000000000000e+00 2.090000000000e+03 0.000000000000e+00
    2.400000000000e+00 0.000000000000e+00-2.002343535423e-08 9.300000000000e+01
    5.256000000000e+05 4.000000000000e+00
21 20  2  1  4  0  0.0-4.748115316033e-05 5.456968210638e-12 0.000000000000e+00
    1.010000000000e+02 1.468750000000e+00 4.986636284846e-09-1.202138770591e-01
    1.937150955200e-07 2.484208031092e-02 7.793307304382e-06 5.153567934036e+03
    5.328000000000e+05-3.371387720108e-07-1.152967257348e+00-1.136213541031e-07
    9.514912346177e-01 2.310625000000e+02-1.370169587989e+00-8.748935856867e-09
    2.696540893180e-10 1.000000000000e+00 2.090000000000e+03 0.000000000000e+00
    2.400000000000e+00 0.000000000000e+00-1.024454832077e-08 1.010000000000e+02
    5.256000000000e+05 4.000000000000e+00
